SILU-1 (SILKROAD 1)     
1 42903U 17021F   18252.26224922  .00026331  00000-0  16865-3 0  9990
2 42903  42.7761 177.5163 0013180 182.1123 309.4231 15.75628120 63174
MIRATA                  
1 43015U 17073C   18251.75489413  .00001403  00000-0  11562-3 0  9995
2 43015  97.7046 179.2707 0257875 359.7899   0.3163 14.78316607 43480
MAKERSAT 0              
1 43016U 17073D   18252.34945070  .00000942  00000-0  79180-4 0  9996
2 43016  97.7075 179.9869 0259206 357.9308   2.0808 14.78273704 43568
ASTERIA                 
1 43020U 98067NH  18252.43969496  .00008315  00000-0  10275-3 0  9992
2 43020  51.6418 310.5692 0002587 110.9069 249.2201 15.61085419 45649
DELLINGR (RBLE)         
1 43021U 98067NJ  18252.41108565  .00004060  00000-0  58505-4 0  9995
2 43021  51.6404 313.3367 0002625 105.7717 254.3566 15.58559008 45603
OSIRIS-3U               
1 43027U 98067NL  18252.41801378  .00024305  00000-0  20929-3 0  9995
2 43027  51.6366 302.8327 0003322  67.1717 292.9631 15.69152059 45621
AEROCUBE 7B             
1 43042U 17071F   18252.20573141  .00002028  00000-0  61210-4 0  9996
2 43042  51.6402 352.0605 0004735 205.7799 154.2950 15.39332685 42548
AEROCUBE 7C             
1 43043U 17071G   18252.53033760  .00001917  00000-0  58426-4 0  9992
2 43043  51.6405 350.4844 0004835 208.7458 151.3260 15.39336517 42567
CHEFSAT                 
1 43044U 17071H   18251.70384761  .00003959  00000-0  10570-3 0  9996
2 43044  51.6411 353.2516 0004834 205.3994 154.6754 15.40539287 42452
ASGARDIA 1              
1 43049U 17071N   18252.17958372  .00001689  00000-0  52446-4 0  9995
2 43049  51.6409 351.9016 0002224 223.9262 136.1546 15.39452471 42506
ISARA                   
1 43050U 17071P   18252.16975928  .00003122  00000-0  86022-4 0  9993
2 43050  51.6404 351.1026 0002128 221.1235 138.9590 15.40318479 42510
FAUNA                   
1 43052U 17071R   18252.48468799  .00002264  00000-0  66545-4 0  9997
2 43052  51.6409 350.1997 0002155 219.7220 140.3607 15.39614515 42558
CORVUS BC3              
1 43118U 18004H   18251.42376112  .00000573  00000-0  27891-4 0  9999
2 43118  97.5258 314.1491 0011260 156.0934 204.0827 15.22374698 36375
MICROMAS-2A             
1 43131U 18004W   18251.41548329  .00001331  00000-0  59527-4 0  9998
2 43131  97.5269 314.3361 0010373 158.2100 201.9579 15.23070095 36389
GOMX4-B                 
1 43196U 18015E   18251.87641879  .00000325  00000-0  16419-4 0  9990
2 43196  97.3566  19.1422 0017825 220.6026 139.3879 15.23733241 33277
GOMX4-A                 
1 43197U 18015F   18252.54132124  .00000515  00000-0  24300-4 0  9993
2 43197  97.3572  19.7970 0018179 217.7907 208.0013 15.23741301 33389
1KUNS-PF                
1 43466U 98067NP  18252.47597936  .00006935  00000-0  99723-4 0  9998
2 43466  51.6398 316.7607 0001094  45.6324 314.4758 15.57315070 18820
UBAKUSAT                
1 43467U 98067NQ  18252.42672878  .00005033  00000-0  75610-4 0  9990
2 43467  51.6402 317.1852 0003082  77.6277 282.5060 15.56809474 18821
BATSU-CS1 (IRAZU)       
1 43468U 98067NR  18252.45863147  .00009006  00000-0  12546-3 0  9997
2 43468  51.6400 316.6452 0001103  33.6918 326.4144 15.57749090118815
CUBERRT                 
1 43546U 98067NU  18252.21323892  .00002993  00000-0  50190-4 0  9992
2 43546  51.6404 319.4989 0005833 144.8675 215.2702 15.55391532  8906
TEMPEST-D               
1 43547U 98067NV  18251.57593200  .00002324  00000-0  41009-4 0  9990
2 43547  51.6406 322.7425 0006223 143.9668 216.1743 15.55070986  8482
HALOSAT                 
1 43549U 98067NX  18251.70444743  .00006154  00000-0  96115-4 0  9997
2 43549  51.6402 322.1012 0005860 152.3482 207.7822 15.55271733  8511
ENDUROSAT ONE           
1 43551U 98067NZ  18251.50097099  .00007038  00000-0  10735-3 0  9991
2 43551  51.6402 322.9923 0006133 160.7011 199.4213 15.55666209  8896
EQUISAT                 
1 43552U 98067PA  18251.43797042  .00006180  00000-0  95478-4 0  9994
2 43552  51.6408 323.3224 0006452 160.8817 199.2417 15.55563169  8841
AEROCUBE 12A            
1 43556U 18046C   18251.57005253  .00001735  00000-0  75875-4 0  9998
2 43556  51.6438 333.7922 0008942 137.3153 222.8523 15.27778291  8266
AEROCUBE 12B            
1 43557U 18046D   18252.22424609  .00001398  00000-0  63656-4 0  9991
2 43557  51.6439 330.6595 0008906 139.4013 220.7632 15.27765867  8317
UITMSAT-1               
1 43589U 98067PD  18252.49266826  .00005542  00000-0  87804-4 0  9997
2 43589  51.6399 318.3641 0005640 174.1060 185.9999 15.55098577  4741
MAYA-1                  
1 43590U 98067PE  18252.23508075  .00005583  00000-0  88315-4 0  9999
2 43590  51.6401 319.6438 0005757 174.2906 185.8152 15.55124166  4636
BHUTAN-1                
1 43591U 98067PF  18251.46325966  .00006903  00000-0  10739-3 0  9991
2 43591  51.6403 323.4888 0005905 172.6489 187.4589 15.55152284  4515
SIRIUSSAT 1             
1 43595U 98067PG  18252.43628673  .00005466  00000-0  87807-4 0  9998
2 43595  51.6401 318.7335 0003793 120.6424 239.4941 15.54746354  3847
SIRIUSSAT 2             
1 43596U 98067PH  18252.43841946  .00005379  00000-0  86932-4 0  9990
2 43596  51.6410 318.7505 0004416 125.4049 234.7355 15.54611751  3845
